[{"OBJECT_NAME":"STARLINK-34576","OBJECT_ID":"2025-142F","EPOCH":"2026-03-09T21:21:00.309024","MEAN_MOTION":14.98370737,"ECCENTRICITY":0.00028434,"INCLINATION":70.0018,"RA_OF_ASC_NODE":313.8048,"ARG_OF_PERICENTER":267.5602,"MEAN_ANOMALY":92.5232,"EPHEMERIS_TYPE":0,"CLASSIFICATION_TYPE":"U","NORAD_CAT_ID":64701,"ELEMENT_SET_NO":999,"REV_AT_EPOCH":3950,"BSTAR":0.002065412,"MEAN_MOTION_DOT":0.00024664,"MEAN_MOTION_DDOT":0},{"OBJECT_NAME":"FENGYUN 1C DEB","OBJECT_ID":"1999-025DFV","EPOCH":"2026-03-08T16:36:39.334752","MEAN_MOTION":14.7561826,"ECCENTRICITY":0.02801674,"INCLINATION":99.0493,"RA_OF_ASC_NODE":138.4817,"ARG_OF_PERICENTER":72.5853,"MEAN_ANOMALY":290.5777,"EPHEMERIS_TYPE":0,"CLASSIFICATION_TYPE":"U","NORAD_CAT_ID":33684,"ELEMENT_SET_NO":999,"REV_AT_EPOCH":94255,"BSTAR":0.0012457497,"MEAN_MOTION_DOT":0.00016208,"MEAN_MOTION_DDOT":0}]
